IRIDIUM 106             
1 41917U 17003A   26194.60752582  .00000031  00000+0  38570-5 0  9991
2 41917  86.3942  77.5094 0002259  93.7629 266.3826 14.34216998496999
IRIDIUM 103             
1 41918U 17003B   26194.59484037  .00000088  00000+0  24409-4 0  9994
2 41918  86.3938  77.4139 0001867  82.5844 277.5564 14.34217917497012
IRIDIUM 109             
1 41919U 17003C   26194.60118248 -.00000042  00000+0 -22177-4 0  9997
2 41919  86.3942  77.4713 0002028  83.9301 276.2126 14.34216773496983
IRIDIUM 102             
1 41920U 17003D   26194.63924017  .00000123  00000+0  36751-4 0  9992
2 41920  86.3943  77.3787 0002241  84.5427 275.6024 14.34217979497079
IRIDIUM 105             
1 41921U 17003E   26194.52806583  .00000153  00000+0  47512-4 0  9998
2 41921  86.3941  45.8529 0002165  79.6737 280.4703 14.34217624498915
IRIDIUM 104             
1 41922U 17003F   26194.65192377  .00000141  00000+0  43374-4 0  9991
2 41922  86.3944  77.4163 0002021  78.5039 281.6383 14.34217933497063
IRIDIUM 114             
1 41923U 17003G   26194.65826672 -.00000023  00000+0 -15396-4 0  9998
2 41923  86.3941  77.3960 0001929  81.2334 278.9080 14.34217041497041
IRIDIUM 108             
1 41924U 17003H   26194.61678795  .00000131  00000+0  39831-4 0  9994
2 41924  86.3937  45.7043 0002228  85.1332 275.0118 14.34217825498896
IRIDIUM 112             
1 41925U 17003J   26194.64557962  .00000128  00000+0  38792-4 0  9991
2 41925  86.3942  77.2429 0002216  84.4380 275.7069 14.34217064497068
IRIDIUM 111             
1 41926U 17003K   26194.63289666  .00000121  00000+0  36292-4 0  9990
2 41926  86.3942  77.3193 0002144  84.7380 275.4061 14.34217935497045
IRIDIUM 113             
1 42803U 17039A   26194.40355448  .00000006  00000+0 -48111-5 0  9998
2 42803  86.3988 311.2213 0002011  90.4531 269.6896 14.34217147474948
IRIDIUM 123             
1 42804U 17039B   26194.51480120 -.00000007  00000+0 -94721-5 0  9997
2 42804  86.3985 342.6310 0002048  96.3069 263.8360 14.34217137473729
IRIDIUM 120             
1 42805U 17039C   26194.39721381 -.00000030  00000+0 -17696-4 0  9992
2 42805  86.3975 311.0032 0002209  99.2698 260.8747 14.34217729474936
IRIDIUM 115             
1 42806U 17039D   26194.53363224  .00000180  00000+0  47594-4 0  9991
2 42806  86.4516 311.0783 0002224  99.9238 260.2214 14.43277088478061
IRIDIUM 118             
1 42807U 17039E   26194.47674723  .00000012  00000+0 -27248-5 0  9994
2 42807  86.3986 342.6447 0002174  90.6739 269.4706 14.34217446473713
IRIDIUM 117             
1 42808U 17039F   26194.49577334  .00000099  00000+0  28315-4 0  9996
2 42808  86.3989 342.5941 0002187  94.7506 265.3940 14.34217387473748
IRIDIUM 126             
1 42809U 17039G   26194.45137627  .00000075  00000+0  19603-4 0  9994
2 42809  86.3989 342.6645 0002054  90.5794 269.5637 14.34217939473716
IRIDIUM 124             
1 42810U 17039H   26194.60607535  .00000183  00000+0  48492-4 0  9991
2 42810  86.4484 279.3131 0002295  95.7873 264.3590 14.43285638478927
IRIDIUM 128             
1 42811U 17039J   26194.51188470  .00000016  00000+0 -12223-5 0  9994
2 42811  86.3961  14.1408 0002169  94.7153 265.4291 14.34216533473753
IRIDIUM 121             
1 42812U 17039K   26194.47040465 -.00000029  00000+0 -17454-4 0  9996
2 42812  86.3986 342.6849 0002119  92.9547 267.1892 14.34217129473591
IRIDIUM 133             
1 42955U 17061A   26194.54359649  .00000041  00000+0  74131-5 0  9992
2 42955  86.3966  14.2459 0002203  91.0202 269.1246 14.34216977458552
IRIDIUM 100             
1 42956U 17061B   26194.53725545  .00000032  00000+0  42345-5 0  9996
2 42956  86.3963  14.1666 0002223  89.9313 270.2137 14.34217045458559
IRIDIUM 122             
1 42957U 17061C   26194.50553783  .00000028  00000+0  27999-5 0  9990
2 42957  86.3966  14.1802 0002136  91.3162 268.8279 14.34216972458555
IRIDIUM 129             
1 42958U 17061D   26194.60067792  .00000025  00000+0  18798-5 0  9996
2 42958  86.3965  14.2077 0002166  83.6016 276.5427 14.34216852458586
IRIDIUM 119             
1 42959U 17061E   26194.49919912  .00000032  00000+0  45395-5 0  9995
2 42959  86.3963  14.2458 0002104  89.8055 270.3382 14.34216562458581
IRIDIUM 107             
1 42960U 17061F   26194.51822473  .00000013  00000+0 -23415-5 0  9994
2 42960  86.3961  14.2596 0001973  94.8071 265.3350 14.34216910458598
IRIDIUM 132             
1 42961U 17061G   26194.52456845  .00000029  00000+0  32763-5 0  9994
2 42961  86.3965  14.2362 0002185  90.2475 269.8971 14.34216467458593
IRIDIUM 136             
1 42962U 17061H   26194.55628303  .00000032  00000+0  45403-5 0  9997
2 42962  86.3965  14.2295 0002251  90.2167 269.9287 14.34217051458615
IRIDIUM 139             
1 42963U 17061J   26194.49285783  .00000030  00000+0  35201-5 0  9995
2 42963  86.3967  14.3184 0002240  91.8663 268.2789 14.34216953458611
IRIDIUM 125             
1 42964U 17061K   26194.54994090  .00000029  00000+0  31629-5 0  9998
2 42964  86.3968  14.3562 0001662  90.7134 269.4252 14.34217281458636
