OBJECT_NAME,OBJECT_ID,EPOCH,MEAN_MOTION,ECCENTRICITY,INCLINATION,RA_OF_ASC_NODE,ARG_OF_PERICENTER,MEAN_ANOMALY,EPHEMERIS_TYPE,CLASSIFICATION_TYPE,NORAD_CAT_ID,ELEMENT_SET_NO,REV_AT_EPOCH,BSTAR,MEAN_MOTION_DOT,MEAN_MOTION_DDOT
IRIDIUM 106,2017-003A,2026-07-13T14:34:50.230848,14.34216998,.00022599,86.3942,77.5094,93.7629,266.3826,0,U,41917,999,49699,.3857005E-5,.31E-6,0
IRIDIUM 103,2017-003B,2026-07-13T14:16:34.207968,14.34217917,.00018675,86.3938,77.4139,82.5844,277.5564,0,U,41918,999,49701,.24409306E-4,.88E-6,0
IRIDIUM 109,2017-003C,2026-07-13T14:25:42.166272,14.34216773,.00020288,86.3942,77.4713,83.9301,276.2126,0,U,41919,999,49698,-.22176916E-4,-.42E-6,0
IRIDIUM 102,2017-003D,2026-07-13T15:20:30.350688,14.34217979,.00022417,86.3943,77.3787,84.5427,275.6024,0,U,41920,999,49707,.36751013E-4,.123E-5,0
IRIDIUM 105,2017-003E,2026-07-13T12:40:24.887712,14.34217624,.0002165,86.3941,45.8529,79.6737,280.4703,0,U,41921,999,49891,.47511756E-4,.153E-5,0
IRIDIUM 104,2017-003F,2026-07-13T15:38:46.213728,14.34217933,.00020219,86.3944,77.4163,78.5039,281.6383,0,U,41922,999,49706,.43373539E-4,.141E-5,0
IRIDIUM 114,2017-003G,2026-07-13T15:47:54.244608,14.34217041,.00019298,86.3941,77.3960,81.2334,278.9080,0,U,41923,999,49704,-.15395872E-4,-.23E-6,0
IRIDIUM 108,2017-003H,2026-07-13T14:48:10.478880,14.34217825,.0002228,86.3937,45.7043,85.1332,275.0118,0,U,41924,999,49889,.39830842E-4,.131E-5,0
IRIDIUM 112,2017-003J,2026-07-13T15:29:38.079168,14.34217064,.00022162,86.3942,77.2429,84.4380,275.7069,0,U,41925,999,49706,.38792246E-4,.128E-5,0
IRIDIUM 111,2017-003K,2026-07-13T15:11:22.271424,14.34217935,.00021442,86.3942,77.3193,84.7380,275.4061,0,U,41926,999,49704,.36291728E-4,.121E-5,0
IRIDIUM 113,2017-039A,2026-07-13T09:41:07.107072,14.34217147,.00020119,86.3988,311.2213,90.4531,269.6896,0,U,42803,999,47494,-.4811085E-5,.6E-7,0
IRIDIUM 123,2017-039B,2026-07-13T12:21:18.823680,14.34217137,.00020487,86.3985,342.6310,96.3069,263.8360,0,U,42804,999,47372,-.9472073E-5,-.7E-7,0
IRIDIUM 120,2017-039C,2026-07-13T09:31:59.273184,14.34217729,.00022096,86.3975,311.0032,99.2698,260.8747,0,U,42805,999,47493,-.1769618E-4,-.3E-6,0
IRIDIUM 115,2017-039D,2026-07-13T12:48:25.825536,14.43277088,.00022249,86.4516,311.0783,99.9238,260.2214,0,U,42806,999,47806,.47593792E-4,.18E-5,0
IRIDIUM 118,2017-039E,2026-07-13T11:26:30.960672,14.34217446,.00021743,86.3986,342.6447,90.6739,269.4706,0,U,42807,999,47371,-.2724789E-5,.12E-6,0
IRIDIUM 117,2017-039F,2026-07-13T11:53:54.816576,14.34217387,.00021876,86.3989,342.5941,94.7506,265.3940,0,U,42808,999,47374,.28315331E-4,.99E-6,0
IRIDIUM 126,2017-039G,2026-07-13T10:49:58.909728,14.34217939,.00020547,86.3989,342.6645,90.5794,269.5637,0,U,42809,999,47371,.19602634E-4,.75E-6,0
IRIDIUM 124,2017-039H,2026-07-13T14:32:44.910240,14.43285638,.00022957,86.4484,279.3131,95.7873,264.3590,0,U,42810,999,47892,.48492497E-4,.183E-5,0
IRIDIUM 128,2017-039J,2026-07-13T12:17:06.838080,14.34216533,.00021698,86.3961,14.1408,94.7153,265.4291,0,U,42811,999,47375,-.1222332E-5,.16E-6,0
IRIDIUM 121,2017-039K,2026-07-13T11:17:22.961760,14.34217129,.00021192,86.3986,342.6849,92.9547,267.1892,0,U,42812,999,47359,-.1745355E-4,-.29E-6,0
IRIDIUM 133,2017-061A,2026-07-13T13:02:46.736736,14.34216977,.00022034,86.3966,14.2459,91.0202,269.1246,0,U,42955,999,45855,.7413105E-5,.41E-6,0
IRIDIUM 100,2017-061B,2026-07-13T12:53:38.870880,14.34217045,.00022231,86.3963,14.1666,89.9313,270.2137,0,U,42956,999,45855,.4234535E-5,.32E-6,0
IRIDIUM 122,2017-061C,2026-07-13T12:07:58.468512,14.34216972,.00021363,86.3966,14.1802,91.3162,268.8279,0,U,42957,999,45855,.279994E-5,.28E-6,0
IRIDIUM 129,2017-061D,2026-07-13T14:24:58.572288,14.34216852,.0002166,86.3965,14.2077,83.6016,276.5427,0,U,42958,999,45858,.1879761E-5,.25E-6,0
IRIDIUM 119,2017-061E,2026-07-13T11:58:50.803968,14.34216562,.00021043,86.3963,14.2458,89.8055,270.3382,0,U,42959,999,45858,.4539487E-5,.32E-6,0
IRIDIUM 107,2017-061F,2026-07-13T12:26:14.616672,14.34216910,.00019735,86.3961,14.2596,94.8071,265.3350,0,U,42960,999,45859,-.2341451E-5,.13E-6,0
IRIDIUM 132,2017-061G,2026-07-13T12:35:22.714080,14.34216467,.00021856,86.3965,14.2362,90.2475,269.8971,0,U,42961,999,45859,.3276304E-5,.29E-6,0
IRIDIUM 136,2017-061H,2026-07-13T13:21:02.853792,14.34217051,.00022515,86.3965,14.2295,90.2167,269.9287,0,U,42962,999,45861,.4540291E-5,.32E-6,0
IRIDIUM 139,2017-061J,2026-07-13T11:49:42.916512,14.34216953,.00022403,86.3967,14.3184,91.8663,268.2789,0,U,42963,999,45861,.3520107E-5,.3E-6,0
IRIDIUM 125,2017-061K,2026-07-13T13:11:54.893760,14.34217281,.00016628,86.3968,14.3562,90.7134,269.4252,0,U,42964,999,45863,.3162949E-5,.29E-6,0
